CZ-2C R/B               
1 54039U 22132E   25344.48255496  .00045310  00000+0  67677-3 0  9990
2 54039  97.2950 340.6381 0023387  64.6122 295.7550 15.54586267176482
GSLV R/B                
1 54149U 22138AN  25344.31415340  .00003566  00000+0  31291-3 0  9996
2 54149  87.3825 196.2865 0023996 113.4541 246.9217 14.96109755170560
XRISM                   
1 57800U 23137A   25344.58721434  .00008922  00000+0  52510-3 0  9994
2 57800  31.0008 139.4410 0007680 223.8244 136.1785 15.10308038124302
ACS3                    
1 59588U 24077B   25344.58735961  .00050623  00000+0  43229-1 0  9993
2 59588  97.2698 300.6738 0077791 343.3516  16.5093 13.85335572 81848
SZ-21 MODULE            
1 66515U 25246C   25344.49376162  .00035412  00000+0  39111-3 0  9990
2 66515  41.4772  29.7454 0006278 248.1298 111.8874 15.62311534  4092
